{
"type": "FeatureCollection",
"name": "za_rsa_supply_regions",
"crs": { "type": "name", "properties": { "name": "urn:ogc:def:crs:OGC:1.3:CRS84" } },
"features": [
{ "type": "Feature", "properties": { "id": 1, "name": "Namaqualand", "POP2016": 125993.76617511168, "GVA2016": 4502.7658573572207 }, "geometry": { "type": "MultiPolygon", "coordinates": [ [ [ [ 20.693283659620128, -26.897269550951115 ], [ 20.75715668535662, -28.055693972262908 ], [ 20.693141804189185, -28.840992805188968 ], [ 21.014704928193034, -29.296540564194419 ], [ 21.109982890860838, -29.683607287532382 ], [ 19.210378510171456, -30.082583756203821 ], [ 17.748477883498431, -31.14099980991509 ], [ 17.74303, -31.13547 ], [ 17.681999995000069, -31.00272999799995 ], [ 17.603670003000047, -30.916210006999961 ], [ 17.523589997000045, -30.735550001999968 ], [ 17.470229995000068, -30.68283 ], [ 17.431859997000061, -30.620419998999978 ], [ 17.442349996000075, -30.596300000999975 ], [ 17.277900005000049, -30.345449996999946 ], [ 17.223419998000054, -30.165089997999928 ], [ 17.19404, -30.135830002999967 ], [ 17.158719997000048, -29.98258 ], [ 17.117930002000037, -29.932129998999983 ], [ 17.10550999700007, -29.868479997999941 ], [ 17.07475998700005, -29.814440005999984 ], [ 17.055710003000058, -29.68939000599994 ], [ 17.034040006000055, -29.61652999699993 ], [ 16.998449998000069, -29.5712 ], [ 17.006289994000042, -29.554150002999961 ], [ 16.971430006000048, -29.437800006999964 ], [ 16.838270003000048, -29.211630004999961 ], [ 16.817439999000044, -29.09336000199994 ], [ 16.747930006000047, -29.042539998999928 ], [ 16.689, -28.925689996999949 ], [ 16.602569997000046, -28.87493 ], [ 16.561610002000066, -28.762000000999933 ], [ 16.57044, -28.727709998999956 ], [ 16.45189, -28.63209999399993 ], [ 16.452180013000032, -28.612099997999962 ], [ 16.468500006000056, -28.572709998999983 ], [ 16.595829999000046, -28.533880001999933 ], [ 16.62113, -28.500130002999981 ], [ 16.672430001000066, -28.47235 ], [ 16.694440001000032, -28.474259998999969 ], [ 16.702190001000076, -28.497640001999969 ], [ 16.733990002000041, -28.494260002999965 ], [ 16.776539993000029, -28.441740000999971 ], [ 16.769179994000069, -28.396389996999972 ], [ 16.808429999000055, -28.362389998999959 ], [ 16.755019999000069, -28.302000001999943 ], [ 16.754490003000058, -28.272790004999933 ], [ 16.776399998000045, -28.25911 ], [ 16.802369998000074, -28.275420000999929 ], [ 16.82474, -28.269020004999959 ], [ 16.825979993000033, -28.245099998999933 ], [ 16.803059996000059, -28.22202 ], [ 16.856060004000028, -28.211690002999944 ], [ 16.83127999800007, -28.166680001999964 ], [ 16.870729996000023, -28.182000000999949 ], [ 16.887929995000036, -28.172879996999939 ], [ 16.885919991000037, -28.088069995999945 ], [ 16.90477, -28.070889995999948 ], [ 16.954500004000067, -28.075960002999977 ], [ 16.973570004000067, -28.058739995999929 ], [ 17.003070005000041, -28.07522999899993 ], [ 17.02152000500007, -28.052099993999946 ], [ 17.07882, -28.032790003999935 ], [ 17.138230003000047, -28.093060005999973 ], [ 17.19193, -28.108230001999971 ], [ 17.182450002000053, -28.203429997999933 ], [ 17.21456, -28.247789983999951 ], [ 17.333269994000034, -28.22579 ], [ 17.38214, -28.295599997999943 ], [ 17.375820001000022, -28.321440002999964 ], [ 17.41417, -28.37631999499996 ], [ 17.41, -28.399580002999983 ], [ 17.384799994000048, -28.436959998999953 ], [ 17.348669998000048, -28.43903 ], [ 17.333100001000048, -28.475539997999931 ], [ 17.366449999000054, -28.510059998999964 ], [ 17.380220001000055, -28.568939998999952 ], [ 17.43177, -28.574219996999943 ], [ 17.418249996000043, -28.721639998999933 ], [ 17.49127, -28.693270001999963 ], [ 17.541999998000051, -28.701089998999976 ], [ 17.568379999000058, -28.685589998999944 ], [ 17.598860003000027, -28.694649996999942 ], [ 17.61611, -28.760670003999962 ], [ 17.647070001000031, -28.773689994999984 ], [ 17.704300008000075, -28.744719996999947 ], [ 17.731390005000037, -28.760050003999936 ], [ 17.749510001000033, -28.739909996999984 ], [ 17.781409998000072, -28.757910004999928 ], [ 17.917599997000025, -28.764090000999943 ], [ 17.93530000100003, -28.787470003999942 ], [ 17.962770008000064, -28.785019993999981 ], [ 17.993519993000064, -28.809500002999982 ], [ 18.04606999400005, -28.874269992999928 ], [ 18.083120003000033, -28.87065000399997 ], [ 18.188439997000046, -28.916150001999938 ], [ 18.219179999000062, -28.894329994999964 ], [ 18.253159997000068, -28.895940005999933 ], [ 18.263490003000072, -28.879389997999965 ], [ 18.350339998000038, -28.880670004999956 ], [ 18.423469997000041, -28.900820002999978 ], [ 18.471070003000023, -28.883259993999957 ], [ 18.512180001000047, -28.88945999699996 ], [ 18.53797, -28.866059994999944 ], [ 18.627929996000034, -28.841090004999955 ], [ 18.73003, -28.831639996999968 ], [ 18.935640004000049, -28.857239995999976 ], [ 18.993049995000035, -28.887170004999973 ], [ 19.009119997000028, -28.929249996999943 ], [ 19.041990006000049, -28.931390003999979 ], [ 19.09785, -28.96576999499996 ], [ 19.155059999000059, -28.961899997999978 ], [ 19.196660003000034, -28.947019998999963 ], [ 19.244990005000034, -28.90259999899996 ], [ 19.282790001000023, -28.909250000999975 ], [ 19.29581999100003, -28.894429998999954 ], [ 19.25637000200004, -28.85775 ], [ 19.23924, -28.813010004999967 ], [ 19.268829998000058, -28.742680002999975 ], [ 19.403649993000045, -28.736819994999962 ], [ 19.466820005000045, -28.70609000099995 ], [ 19.491480007000064, -28.679610003999983 ], [ 19.503869997000038, -28.601000005999936 ], [ 19.53605, -28.58713 ], [ 19.546030003000055, -28.543960000999959 ], [ 19.565789993000067, -28.52767999799994 ], [ 19.62519998700003, -28.510929997999938 ], [ 19.668340004000072, -28.531090003999964 ], [ 19.738629999000068, -28.48574 ], [ 19.813249997000071, -28.508300002999931 ], [ 19.877050001000043, -28.442730002999951 ], [ 19.999159993000035, -28.427819995999982 ], [ 19.998870004000025, -24.765860007999947 ], [ 20.03814, -24.80944999899998 ], [ 20.090240003000076, -24.832820001999949 ], [ 20.087679996000077, -24.852019996999957 ], [ 20.121349998000028, -24.88483 ], [ 20.150239991000035, -24.879540001999942 ], [ 20.181750004000037, -24.911780002999933 ], [ 20.203559995000035, -24.896439996999959 ], [ 20.221959996000066, -24.919919995999976 ], [ 20.259330001000023, -24.92371000299994 ], [ 20.296510005000073, -24.980619996999962 ], [ 20.38417000100003, -25.034300002999942 ], [ 20.378830005000054, -25.061859998999978 ], [ 20.412650001000031, -25.082889995999949 ], [ 20.430889992000061, -25.154289996999978 ], [ 20.468990001000066, -25.156890000999965 ], [ 20.446380001000023, -25.198970001999953 ], [ 20.47111, -25.228270002999977 ], [ 20.498920002000034, -25.22836 ], [ 20.487319997000043, -25.25307 ], [ 20.499659998000027, -25.272249994999981 ], [ 20.545929999000066, -25.286239996999939 ], [ 20.513900006000028, -25.317139992999955 ], [ 20.54697999800004, -25.320560005999937 ], [ 20.539229998000053, -25.344779992999975 ], [ 20.561550002000047, -25.389489989999959 ], [ 20.6016, -25.39468 ], [ 20.601219999000023, -25.427400005999971 ], [ 20.630980006000073, -25.425310005999961 ], [ 20.615969996000047, -25.445300001999954 ], [ 20.622539993000032, -25.461820002999957 ], [ 20.674379989000045, -25.453240002999962 ], [ 20.667650006000031, -25.469620000999953 ], [ 20.636240005000047, -25.473499996999976 ], [ 20.643449994000036, -25.497990005999952 ], [ 20.629179995000072, -25.525010013999974 ], [ 20.669960006000053, -25.549790003999931 ], [ 20.698189999000078, -25.595110000999966 ], [ 20.665369997000028, -25.604020003999949 ], [ 20.651769996000041, -25.63745999899993 ], [ 20.687880001000053, -25.635459995999952 ], [ 20.67789000700003, -25.690360002999967 ], [ 20.71809999900006, -25.71872 ], [ 20.731739998000023, -25.771650001999944 ], [ 20.763460003000034, -25.780440001999978 ], [ 20.739299997000046, -25.822669997999981 ], [ 20.788230001000045, -25.803110000999936 ], [ 20.78273000300004, -25.854970003999938 ], [ 20.813130002000037, -25.869749998999964 ], [ 20.802860002000045, -25.92096999499995 ], [ 20.84039, -25.95604 ], [ 20.815350005000028, -26.0059 ], [ 20.836069989000066, -26.036129996999932 ], [ 20.818670006000048, -26.058580003999964 ], [ 20.841810002000045, -26.080440000999943 ], [ 20.82091, -26.105479995999929 ], [ 20.863279998000053, -26.132679996999968 ], [ 20.819319997000036, -26.182319997999969 ], [ 20.790450004000036, -26.27122000199995 ], [ 20.71987000300004, -26.333759997999948 ], [ 20.69344000500007, -26.397700003999944 ], [ 20.617419996000024, -26.443730005999953 ], [ 20.604829997000024, -26.51467 ], [ 20.610029998000073, -26.559940006999966 ], [ 20.6326, -26.591779998999982 ], [ 20.635280002000059, -26.665270000999953 ], [ 20.614469997000072, -26.686929996999936 ], [ 20.63765999900005, -26.7675 ], [ 20.62236, -26.786880003999954 ], [ 20.65040999200005, -26.809520002999932 ], [ 20.64539, -26.828980003999959 ], [ 20.682699999000022, -26.840550001999929 ], [ 20.685269997000034, -26.907289996999964 ], [ 20.693283659620128, -26.897269550951115 ] ] ] ] } },
{ "type": "Feature", "properties": { "id": 2, "name": "West Coast", "POP2016": 354095.78901000007, "GVA2016": 15369.996640979729 }, "geometry": { "type": "MultiPolygon", "coordinates": [ [ [ [ 17.748477883498431, -31.14099980991509 ], [ 19.210378510171456, -30.082583756203821 ], [ 21.109982890860838, -29.683607287532382 ], [ 21.364553697363903, -30.619266655293565 ], [ 20.268857126684132, -31.631595008639007 ], [ 18.798003577999868, -33.150087538657175 ], [ 18.123241468338566, -33.189123363183036 ], [ 18.123919998000076, -33.180450010999948 ], [ 18.084699999000065, -33.173800003999929 ], [ 18.09617, -33.168190000999971 ], [ 18.090530002000037, -33.143050010999957 ], [ 18.032220001000042, -33.105199996999943 ], [ 18.04282, -33.050410000999932 ], [ 18.0301, -33.023860001999935 ], [ 17.997449991000053, -33.00783 ], [ 17.983489999000028, -33.03221999699997 ], [ 17.996439997000039, -32.999909997999964 ], [ 17.968180003000043, -32.996210001999941 ], [ 17.946089999000037, -33.007079998999984 ], [ 17.973029999000062, -33.035200002999943 ], [ 17.970779998000069, -33.044839997999929 ], [ 17.946859988000028, -33.025500001999944 ], [ 17.910620003000076, -33.051950002999945 ], [ 17.89326999900004, -33.040769996999984 ], [ 17.90319, -33.01501 ], [ 17.871490011000049, -32.992760000999965 ], [ 17.886300002000041, -32.978520003999961 ], [ 17.88414, -32.93016999699995 ], [ 17.85669000300004, -32.905259997999963 ], [ 17.882879995000053, -32.862539990999949 ], [ 17.843840003000025, -32.825459996999939 ], [ 17.90155, -32.802019996999945 ], [ 17.89517999800006, -32.742199996999943 ], [ 17.921159996000029, -32.713509991999956 ], [ 17.948560001000033, -32.722330007999972 ], [ 17.967390002000059, -32.700409996999952 ], [ 17.98205000300004, -32.704590002999964 ], [ 17.978569999000058, -32.72543 ], [ 18.014880004000076, -32.740069996999978 ], [ 18.055260002000068, -32.784170002999929 ], [ 18.138910004000024, -32.773259996999968 ], [ 18.246799997000039, -32.678149991999931 ], [ 18.304510002000029, -32.586569997999959 ], [ 18.334799998000051, -32.464280003999932 ], [ 18.313910001000067, -32.316979996999976 ], [ 18.33749, -32.313999998999975 ], [ 18.344679998000061, -32.281420000999958 ], [ 18.300120003000075, -32.113629997999965 ], [ 18.314049992000037, -32.070980001999942 ], [ 18.265420004000077, -31.939579996999953 ], [ 18.278820001000042, -31.893380001999958 ], [ 18.230150003000062, -31.816990000999965 ], [ 18.222789996000074, -31.744320000999949 ], [ 18.151749998000071, -31.655420002999961 ], [ 18.1111, -31.574979996999957 ], [ 17.90044000100005, -31.352060002999963 ], [ 17.863390002000074, -31.25764000099997 ], [ 17.748477883498431, -31.14099980991509 ] ] ], [ [ [ 18.080279026984439, -33.191608793674597 ], [ 18.077463985324584, -33.191771647324337 ], [ 18.059247988811368, -33.196472549650331 ], [ 18.015439999000023, -33.155459994999944 ], [ 18.004979999000057, -33.14804999699993 ], [ 17.970220003000065, -33.136990001999948 ], [ 17.972769998000047, -33.117959996999957 ], [ 17.951920003000055, -33.105859997999971 ], [ 17.979180001000032, -33.091300001999969 ], [ 17.972220002000029, -33.06774 ], [ 17.994749998000032, -33.069890003999944 ], [ 18.004530001000035, -33.08772000099998 ], [ 17.984819999000024, -33.089610003999951 ], [ 17.98196000300004, -33.095049996999933 ], [ 18.01344, -33.095820001999982 ], [ 18.02496, -33.144669998999973 ], [ 18.080279026984439, -33.191608793674597 ] ] ], [ [ [ 17.95765, -33.081640009999944 ], [ 17.955520001000025, -33.087540000999979 ], [ 17.950590003000059, -33.082710000999953 ], [ 17.952259997000056, -33.079950003999954 ], [ 17.95765, -33.081640009999944 ] ] ], [ [ [ 18.021140002000038, -33.08799 ], [ 18.026500002000034, -33.090879997999934 ], [ 18.023760001000028, -33.094559997999966 ], [ 18.01778, -33.093089998999972 ], [ 18.021140002000038, -33.08799 ] ] ], [ [ [ 17.925250002000041, -33.050609996999981 ], [ 17.92836, -33.05121 ], [ 17.929510008000022, -33.05307 ], [ 17.923769997000022, -33.054530000999932 ], [ 17.925250002000041, -33.050609996999981 ] ] ], [ [ [ 17.98590000400003, -33.150749996999934 ], [ 17.985219999000037, -33.154389995999964 ], [ 17.979080003000036, -33.152050002999943 ], [ 17.980290001000071, -33.150749996999934 ], [ 17.98590000400003, -33.150749996999934 ] ] ], [ [ [ 18.007170012000074, -33.08387 ], [ 18.010659998000051, -33.084870002999935 ], [ 18.011049999000022, -33.086539997999978 ], [ 18.006459996000046, -33.08630999899998 ], [ 18.007170012000074, -33.08387 ] ] ], [ [ [ 17.992619999000055, -33.145789996999952 ], [ 17.993790003000072, -33.146770003999961 ], [ 17.991310003000024, -33.14804999699993 ], [ 17.99084, -33.146529998999938 ], [ 17.992619999000055, -33.145789996999952 ] ] ] ] } },
{ "type": "Feature", "properties": { "id": 3, "name": "Peninsula", "POP2016": 4911544.7675100006, "GVA2016": 304238.8034183557 }, "geometry": { "type": "MultiPolygon", "coordinates": [ [ [ [ 18.059247988811368, -33.196472549650331 ], [ 18.077463985324584, -33.191771647324337 ], [ 18.080279026984439, -33.191608793674597 ], [ 18.094799999000031, -33.203929995999943 ], [ 18.122999996000033, -33.19221 ], [ 18.123241468338566, -33.189123363183036 ], [ 18.798003577999868, -33.150087538657175 ], [ 19.185070301337831, -33.25132037399171 ], [ 19.250573900671949, -33.697935823997057 ], [ 19.345851863339757, -33.852762513332237 ], [ 19.667414987343601, -34.114776910668709 ], [ 19.381581099340185, -34.478024143339724 ], [ 19.359458846321086, -34.500860017423953 ], [ 19.341150001000074, -34.461330002999944 ], [ 19.275380003000066, -34.409050000999969 ], [ 19.218480003000025, -34.438120000999959 ], [ 19.170620004000057, -34.41606 ], [ 19.14223000100003, -34.423630000999935 ], [ 19.120629997000037, -34.41589999699994 ], [ 19.124299999000073, -34.394780001999948 ], [ 19.102589998000042, -34.372130010999967 ], [ 19.042409999000029, -34.341070001999981 ], [ 18.965449997000064, -34.362970000999951 ], [ 18.911289999000076, -34.357680003999974 ], [ 18.892899999000065, -34.376040000999978 ], [ 18.858839996000029, -34.374719998999979 ], [ 18.861910002000059, -34.388950005999959 ], [ 18.843260001000033, -34.37799999899994 ], [ 18.82603, -34.388050000999954 ], [ 18.809540001000073, -34.348669997999934 ], [ 18.831770004000077, -34.33891 ], [ 18.811909997000043, -34.298769998999944 ], [ 18.855930002000036, -34.252350003999936 ], [ 18.818350010000074, -34.189999995999983 ], [ 18.868099997000058, -34.15905 ], [ 18.779940001000057, -34.085109996999961 ], [ 18.63079, -34.073289994999982 ], [ 18.469090001000041, -34.109140010999965 ], [ 18.433399997000038, -34.137929996999958 ], [ 18.425159997000037, -34.184669998999937 ], [ 18.47716, -34.232669996999959 ], [ 18.460699996000073, -34.319199998999977 ], [ 18.498100004000037, -34.357340000999955 ], [ 18.472090004000052, -34.358260002999941 ], [ 18.40059, -34.308439996999937 ], [ 18.379459991000033, -34.272979998999972 ], [ 18.370440011000028, -34.195939995999936 ], [ 18.318330003000028, -34.145909995999943 ], [ 18.349949999000046, -34.128009995999946 ], [ 18.34972, -34.090760000999978 ], [ 18.36877000100003, -34.062710000999971 ], [ 18.357340001000068, -34.045749998999952 ], [ 18.340280001000053, -34.061590002999935 ], [ 18.307220001000076, -34.039509997999971 ], [ 18.370940001000065, -33.97405 ], [ 18.377310003000048, -33.922100002999969 ], [ 18.398469999000042, -33.900549996999985 ], [ 18.434509996000031, -33.897600001999933 ], [ 18.417410004000033, -33.908789997999975 ], [ 18.44592, -33.9203 ], [ 18.435060001000068, -33.908579995999958 ], [ 18.43737, -33.906789998999955 ], [ 18.454990003000034, -33.915460001999975 ], [ 18.445969999000056, -33.90557000299998 ], [ 18.438879999000051, -33.905599997999957 ], [ 18.438950003000059, -33.903000002999931 ], [ 18.465939994000053, -33.912010007999982 ], [ 18.484590003000051, -33.890190003999976 ], [ 18.488699997000026, -33.851910002999944 ], [ 18.445969999000056, -33.772010003999981 ], [ 18.437959998000053, -33.692560003999972 ], [ 18.395559996000031, -33.62336000099998 ], [ 18.356689998000036, -33.59859999899993 ], [ 18.35502000300005, -33.578560000999971 ], [ 18.307614998000076, -33.565109996999979 ], [ 18.325360006000039, -33.517019998999956 ], [ 18.307260002000078, -33.48129000199998 ], [ 18.238760009000032, -33.413400002999936 ], [ 18.146900001000063, -33.35475 ], [ 18.157400002000031, -33.323410001999946 ], [ 18.106490001000054, -33.240699997999968 ], [ 18.059247988811368, -33.196472549650331 ] ] ] ] } },
{ "type": "Feature", "properties": { "id": 4, "name": "Southern Cape", "POP2016": 1185614.6637000004, "GVA2016": 49647.577120191621 }, "geometry": { "type": "MultiPolygon", "coordinates": [ [ [ [ 19.359458846321086, -34.500860017423953 ], [ 19.381581099340185, -34.478024143339724 ], [ 19.667414987343601, -34.114776910668709 ], [ 19.345851863339757, -33.852762513332237 ], [ 19.250573900671949, -33.697935823997057 ], [ 19.185070301337831, -33.25132037399171 ], [ 18.798003577999868, -33.150087538657175 ], [ 20.268857126684132, -31.631595008639007 ], [ 21.364553697363903, -30.619266655293565 ], [ 21.870717874036625, -31.378512920302651 ], [ 22.040431745038653, -31.578001154638372 ], [ 22.56446053971159, -32.134781748978362 ], [ 23.061692407384207, -32.911892631987662 ], [ 23.335616550054148, -33.656251715329901 ], [ 23.40475463043505, -34.024988144028043 ], [ 23.384460002000026, -34.040060001999962 ], [ 23.371509996000043, -34.078720006999959 ], [ 23.37552, -34.09816000099994 ], [ 23.412520008000058, -34.107070000999954 ], [ 23.406920003000039, -34.111429996999959 ], [ 23.008560003000071, -34.071970000999954 ], [ 22.978830002000052, -34.078679997999984 ], [ 22.979829998000071, -34.094019996999975 ], [ 22.79604000300003, -34.031060002999936 ], [ 22.764890002000072, -34.037530000999936 ], [ 22.563649999000063, -33.99611 ], [ 22.484299996000061, -34.051620002999982 ], [ 22.270870001000048, -34.052679995999938 ], [ 22.159529998000039, -34.084139995999976 ], [ 22.125949996000031, -34.11492999799998 ], [ 22.111279997000054, -34.15697999799994 ], [ 22.11316000100004, -34.165049996999983 ], [ 22.147310004000076, -34.17505 ], [ 22.158090002000051, -34.18103 ], [ 22.160700002000056, -34.18780000199996 ], [ 21.956669998000052, -34.228960002999941 ], [ 21.914039998000078, -34.26766 ], [ 21.914990003000071, -34.291079995999951 ], [ 21.946280002000037, -34.300159995999934 ], [ 21.908099999000058, -34.319209988999944 ], [ 21.914389999000036, -34.338760002999948 ], [ 21.830469998000069, -34.376470002999952 ], [ 21.696119997000039, -34.394990003999965 ], [ 21.522599996000054, -34.357099995999931 ], [ 21.431969999000046, -34.372599997999941 ], [ 21.429189996000048, -34.394539996999981 ], [ 21.37232, -34.42309000299997 ], [ 21.29947, -34.439059998999937 ], [ 21.10207998900006, -34.37685999699994 ], [ 20.933209996000073, -34.36594 ], [ 20.85183, -34.400779997999962 ], [ 20.872120001000042, -34.450889991999929 ], [ 20.847750009000038, -34.47487999699996 ], [ 20.655340002000059, -34.449670003999984 ], [ 20.533409999000071, -34.469999997999935 ], [ 20.444940004000046, -34.510759998999958 ], [ 20.39940000100006, -34.571440003999953 ], [ 20.246979999000075, -34.645479996999939 ], [ 20.232839992000038, -34.661780005999958 ], [ 20.236259999000026, -34.691559996999956 ], [ 20.167619999000067, -34.69607999699997 ], [ 20.079780001000074, -34.736510001999932 ], [ 20.047899997000059, -34.774679998999943 ], [ 20.063839999000038, -34.805950001999975 ], [ 20.005839998000056, -34.834099998999932 ], [ 19.942890003000059, -34.816230001999941 ], [ 19.87232, -34.765909997999984 ], [ 19.69787999700003, -34.762520001999974 ], [ 19.663030001000038, -34.788419997999938 ], [ 19.638420004000068, -34.782669996999971 ], [ 19.632190001000026, -34.755099997999935 ], [ 19.600259997000023, -34.750799997999934 ], [ 19.591619997000066, -34.725809997999932 ], [ 19.550120001000039, -34.71215 ], [ 19.520480001000067, -34.671299998999984 ], [ 19.450320003000058, -34.655629995999959 ], [ 19.411640003000059, -34.607369996999978 ], [ 19.29343, -34.63358999899998 ], [ 19.378870007000046, -34.542770003999976 ], [ 19.359458846321086, -34.500860017423953 ] ] ] ] } },
{ "type": "Feature", "properties": { "id": 5, "name": "Port Elizabeth", "POP2016": 1701166.3883, "GVA2016": 98910.786131417583 }, "geometry": { "type": "MultiPolygon", "coordinates": [ [ [ [ 23.40475463043505, -34.024988144028043 ], [ 23.335616550054148, -33.656251715329901 ], [ 23.061692407384207, -32.911892631987662 ], [ 23.374323222387929, -32.194330475645735 ], [ 23.710773528058617, -31.881699660641996 ], [ 23.999584852395408, -31.673279117306169 ], [ 24.091885378729845, -30.803867707962436 ], [ 24.205027959397871, -30.741341544961688 ], [ 25.574648672747585, -31.438061646970024 ], [ 26.137384139754321, -31.759624770973868 ], [ 25.911098978418281, -32.542690526649906 ], [ 26.015309250086194, -32.774930560652685 ], [ 26.182045684754854, -33.039922394322517 ], [ 27.084692076009727, -33.530681597334876 ], [ 27.058549998000046, -33.536280001999955 ], [ 27.008399996000037, -33.57059 ], [ 26.937229997000031, -33.58149 ], [ 26.866710001000058, -33.626330000999928 ], [ 26.742259997000076, -33.652929997999934 ], [ 26.558539998000072, -33.748260003999974 ], [ 26.468390001000046, -33.77337999699995 ], [ 26.29425999800003, -33.76348 ], [ 26.078760001000035, -33.706750001999978 ], [ 25.847249997000063, -33.722470003999945 ], [ 25.703960002000031, -33.790460000999929 ], [ 25.630959998000037, -33.864249998999981 ], [ 25.612519999000028, -33.948269997999944 ], [ 25.67200000400004, -33.983639995999965 ], [ 25.703979999000069, -34.03192 ], [ 25.659700001000033, -34.026529996999955 ], [ 25.62812999700003, -34.049389997999981 ], [ 25.580929998000045, -34.050759998999979 ], [ 25.468080004000058, -34.029369995999957 ], [ 25.40776999600007, -34.035779998999942 ], [ 25.203399997000076, -33.967499997999937 ], [ 25.017019998000023, -33.973050003999958 ], [ 24.92844999600004, -34.01478999699998 ], [ 24.922369998000079, -34.079800003999935 ], [ 24.84286, -34.141670001999955 ], [ 24.832300003000057, -34.16787 ], [ 24.871440001000053, -34.196719990999952 ], [ 24.839880002000029, -34.197309996999934 ], [ 24.837119997000059, -34.213860000999944 ], [ 24.646420009000053, -34.172990002999938 ], [ 24.615490002000058, -34.175759998999979 ], [ 24.608660003000068, -34.191380002999949 ], [ 24.49125, -34.167640000999938 ], [ 24.381949997000049, -34.103080000999967 ], [ 24.310339989000056, -34.101849998999967 ], [ 24.193799997000042, -34.05997999799996 ], [ 23.846519999000066, -34.02709 ], [ 23.64445, -33.97998999899994 ], [ 23.55649, -33.982730000999936 ], [ 23.412359997000067, -34.019339998999953 ], [ 23.40475463043505, -34.024988144028043 ] ] ] ] } },
{ "type": "Feature", "properties": { "id": 6, "name": "Karoo", "POP2016": 494606.64634999994, "GVA2016": 14224.891316377752 }, "geometry": { "type": "MultiPolygon", "coordinates": [ [ [ [ 23.061692407384207, -32.911892631987662 ], [ 22.56446053971159, -32.134781748978362 ], [ 22.040431745038653, -31.578001154638372 ], [ 21.870717874036625, -31.378512920302651 ], [ 21.364553697363903, -30.619266655293565 ], [ 21.109982890860838, -29.683607287532382 ], [ 21.014704928193034, -29.296540564194419 ], [ 23.347526295387606, -28.999541289940854 ], [ 23.34876005655596, -28.999438331088051 ], [ 25.452573783079458, -28.823872546272085 ], [ 25.604423036081275, -29.529524957280525 ], [ 26.089745158420413, -29.606938301948119 ], [ 26.235639538755493, -29.684351646615713 ], [ 26.777532951428643, -29.705193700949295 ], [ 27.020118041864503, -29.623357766826352 ], [ 27.0281, -29.638819996999928 ], [ 27.013309998000068, -29.660950001999936 ], [ 27.096579997000049, -29.729929995999953 ], [ 27.218869998000059, -30.01003000299994 ], [ 27.269479997000076, -30.02603000299996 ], [ 27.268470004000051, -30.043010000999971 ], [ 27.29654, -30.056109995999975 ], [ 27.326890001000038, -30.148120000999938 ], [ 27.407310002000031, -30.144530000999964 ], [ 27.380980003000047, -30.177469997999935 ], [ 27.38618, -30.193270000999973 ], [ 27.368230001000029, -30.19217 ], [ 27.366930004000039, -30.273839998999961 ], [ 27.389320002000034, -30.283459998999945 ], [ 27.379930001000048, -30.300169997999944 ], [ 27.387606483813514, -30.303945401098115 ], [ 27.381952527102541, -30.321523021956668 ], [ 27.325381236768528, -30.512078947292281 ], [ 26.938314513430566, -31.446993955970132 ], [ 26.137384139754321, -31.759624770973868 ], [ 25.574648672747585, -31.438061646970024 ], [ 24.205027959397871, -30.741341544961688 ], [ 24.091885378729845, -30.803867707962436 ], [ 23.999584852395408, -31.673279117306169 ], [ 23.710773528058617, -31.881699660641996 ], [ 23.374323222387929, -32.194330475645735 ], [ 23.061692407384207, -32.911892631987662 ] ] ] ] } },
{ "type": "Feature", "properties": { "id": 7, "name": "Kimberley", "POP2016": 1293995.1921399999, "GVA2016": 38453.640243803282 }, "geometry": { "type": "MultiPolygon", "coordinates": [ [ [ [ 25.452573783079458, -28.823872546272085 ], [ 23.34876005655596, -28.999438331088051 ], [ 23.347526295387606, -28.999541289940854 ], [ 21.014704928193034, -29.296540564194419 ], [ 20.693141804189185, -28.840992805188968 ], [ 20.75715668535662, -28.055693972262908 ], [ 20.693283659620128, -26.897269550951115 ], [ 20.714980006000076, -26.87014 ], [ 20.763510001000043, -26.866350000999944 ], [ 20.786630006000053, -26.84170998999997 ], [ 20.816339999000036, -26.84166 ], [ 20.8207, -26.819270006999943 ], [ 20.898120004000077, -26.796299995999959 ], [ 20.94661, -26.813889995999943 ], [ 20.97195, -26.80731 ], [ 21.010929999000041, -26.846660000999975 ], [ 21.078940002000024, -26.84852000199993 ], [ 21.134170004000055, -26.873759997999969 ], [ 21.221669998000039, -26.843799997999952 ], [ 21.29915999900004, -26.849419998999963 ], [ 21.332669999000075, -26.825579997999967 ], [ 21.404949998000063, -26.822099994999974 ], [ 21.525379999000052, -26.861840004999976 ], [ 21.54091999700006, -26.84312 ], [ 21.575570002000063, -26.839900002999968 ], [ 21.626880002000064, -26.866649996999968 ], [ 21.694839999000067, -26.861240003999967 ], [ 21.780990005000035, -26.802319997999973 ], [ 21.793119997000076, -26.770790010999974 ], [ 21.769200007000052, -26.695689998999967 ], [ 21.78739, -26.676060003999964 ], [ 21.82406, -26.659729995999953 ], [ 21.948980005000067, -26.670000003999974 ], [ 22.051380006000045, -26.633489997999959 ], [ 22.079049997000027, -26.579209990999971 ], [ 22.163479996000035, -26.508329993999951 ], [ 22.160140004000027, -26.483329996999942 ], [ 22.182259999000053, -26.469190000999959 ], [ 22.181530003000034, -26.439199994999967 ], [ 22.20024, -26.424780000999931 ], [ 22.190540003000024, -26.39999000399996 ], [ 22.238669997000045, -26.37056 ], [ 22.242330001000028, -26.349940003999961 ], [ 22.306889999000077, -26.344080003999977 ], [ 22.32593, -26.322259996999946 ], [ 22.362950002000048, -26.325529991999929 ], [ 22.363110004000077, -26.285779997999953 ], [ 22.402709996000056, -26.27287000299998 ], [ 22.398800001000041, -26.248129995999932 ], [ 22.420060005000039, -26.224419997999973 ], [ 22.45413, -26.227900000999966 ], [ 22.47173, -26.200569996999945 ], [ 22.529190005000032, -26.226769995999973 ], [ 22.557409999000072, -26.221759994999957 ], [ 22.577739999000073, -26.191620001999979 ], [ 22.578110001000027, -26.142579994999949 ], [ 22.604570006000074, -26.149619997999935 ], [ 22.608179996000047, -26.12855000299993 ], [ 22.636849999000049, -26.116329998999959 ], [ 22.629819996000037, -26.09668000299996 ], [ 22.673080010000035, -26.073669996999968 ], [ 22.666210002000071, -26.017270002999965 ], [ 22.72529, -26.014459998999939 ], [ 22.72390000300004, -25.950089995999974 ], [ 22.749239996000028, -25.917999989999942 ], [ 22.712029994000034, -25.892959997999981 ], [ 22.738090001000046, -25.881770001999939 ], [ 22.736010001000068, -25.856529998999974 ], [ 22.781730010000047, -25.824409997999965 ], [ 22.734580003000076, -25.793659997999953 ], [ 22.759329999000045, -25.788659996999968 ], [ 22.769320003000075, -25.732840001999932 ], [ 22.799919998000064, -25.723119996999969 ], [ 22.821480002000044, -25.690470003999963 ], [ 22.830210002000058, -25.657770002999939 ], [ 22.800419996000073, -25.632769996999968 ], [ 22.853369997000073, -25.615169997999942 ], [ 22.81407000400003, -25.582419998999967 ], [ 22.853489999000033, -25.533509996999953 ], [ 22.86035, -25.50699999099993 ], [ 22.846369996000078, -25.490169997999942 ], [ 22.900440003000028, -25.486849996999979 ], [ 22.885740001000045, -25.468390001999978 ], [ 22.909949998000059, -25.422310000999971 ], [ 22.96999999600007, -25.381140001999938 ], [ 22.977940003000072, -25.339859997999952 ], [ 23.011320008000041, -25.33586 ], [ 23.01034000900006, -25.297229998999967 ], [ 23.030789997000056, -25.31292999599998 ], [ 23.058420001000059, -25.28994000299997 ], [ 23.05444, -25.318609994999974 ], [ 23.078689998000073, -25.331969998999966 ], [ 23.10739, -25.30418 ], [ 23.134540003000041, -25.317420001999949 ], [ 23.212019998000073, -25.273420000999977 ], [ 23.278049997000039, -25.27409999899993 ], [ 23.29501000700003, -25.294089997999947 ], [ 23.355549998000072, -25.285139996999931 ], [ 23.368410004000054, -25.303429998999945 ], [ 23.414299999000036, -25.315799997999932 ], [ 23.442229997000027, -25.27697 ], [ 23.465789999000037, -25.27675 ], [ 23.458139996000057, -25.297740002999944 ], [ 23.49432, -25.317950001999975 ], [ 23.496179993000055, -25.351569995999967 ], [ 23.524050001000035, -25.340079998999954 ], [ 23.559589993000031, -25.354659997999931 ], [ 23.557270003000042, -25.371740002999957 ], [ 23.584400001000063, -25.375619997999934 ], [ 23.589310003000037, -25.396460003999948 ], [ 23.616, -25.383920003999947 ], [ 23.611520001000031, -25.403510002999951 ], [ 23.632740002000048, -25.410950003999972 ], [ 23.637459998000054, -25.43157999899995 ], [ 23.668370001000028, -25.416090003999955 ], [ 23.666699999000059, -25.441999997999972 ], [ 23.696299999000075, -25.445610001999967 ], [ 23.7025, -25.46237 ], [ 23.728969997000036, -25.446360002999938 ], [ 23.75802999800004, -25.468740001999947 ], [ 23.762930002000076, -25.503210002999936 ], [ 23.820959997000045, -25.512899997999966 ], [ 23.808520003000069, -25.545159997999974 ], [ 23.835160001000077, -25.54107999799993 ], [ 23.83969, -25.567889997999941 ], [ 23.880239999000025, -25.57745 ], [ 23.882830003000038, -25.594949992999943 ], [ 23.907030002000056, -25.6055 ], [ 23.904510001000062, -25.627520000999937 ], [ 23.925033664965383, -25.632882350997971 ], [ 24.475974665734441, -26.272209608574894 ], [ 25.196899104287827, -26.893087390349439 ], [ 25.541896873080525, -27.707333921258726 ], [ 25.419821983412398, -28.567813021602355 ], [ 25.452573783079458, -28.823872546272085 ] ] ] ] } },
{ "type": "Feature", "properties": { "id": 8, "name": "Carletonville", "POP2016": 1940267.62885, "GVA2016": 70605.451575666288 }, "geometry": { "type": "MultiPolygon", "coordinates": [ [ [ [ 25.541896873080525, -27.707333921258726 ], [ 25.196899104287827, -26.893087390349439 ], [ 24.475974665734441, -26.272209608574894 ], [ 23.925033664965383, -25.632882350997971 ], [ 23.946189996000044, -25.638410001999944 ], [ 23.972589990000074, -25.61485 ], [ 24.012010001000078, -25.624490003999938 ], [ 24.005239999000025, -25.651329997999937 ], [ 24.029939996000053, -25.634270005999952 ], [ 24.05859, -25.651869995999959 ], [ 24.067740004000029, -25.630960002999927 ], [ 24.085830002000023, -25.643370002999973 ], [ 24.157109997000077, -25.60816 ], [ 24.15944999900006, -25.630120002999945 ], [ 24.191770003000045, -25.62035999699998 ], [ 24.226830002000042, -25.643979996999974 ], [ 24.260889997000049, -25.707270002999962 ], [ 24.288409996000041, -25.694259998999939 ], [ 24.285689999000056, -25.726659997999946 ], [ 24.32637999700006, -25.710879998999928 ], [ 24.32424, -25.7317 ], [ 24.356379997000033, -25.757880000999933 ], [ 24.401280003000068, -25.76245 ], [ 24.433339999000054, -25.733850003999976 ], [ 24.467369999000027, -25.737530002999961 ], [ 24.682689997000068, -25.823860001999947 ], [ 24.729020009000067, -25.804000002999942 ], [ 24.794730002000051, -25.825249998999936 ], [ 24.813169993000031, -25.810319997999954 ], [ 24.896929999000065, -25.810769996999966 ], [ 24.912799998000025, -25.784410003999938 ], [ 25.037460004000025, -25.722210000999951 ], [ 25.10433000300003, -25.741149997999969 ], [ 25.121390003000045, -25.76374999799998 ], [ 25.334130003000041, -25.771019996999939 ], [ 25.513660007000055, -25.684339997999928 ], [ 25.545105201548225, -25.663036596562826 ], [ 26.878765786763182, -25.769022868235538 ], [ 27.462343308103495, -25.867278267236713 ], [ 27.605260252105204, -26.397261934576385 ], [ 27.658854106105846, -26.486585024577455 ], [ 27.590373070438361, -26.882584056915526 ], [ 27.146735056766385, -27.129711272585148 ], [ 26.581022153426286, -27.329199506920865 ], [ 25.541896873080525, -27.707333921258726 ] ] ] ] } },
{ "type": "Feature", "properties": { "id": 9, "name": "Welkom", "POP2016": 798905.13321000012, "GVA2016": 29770.262202279599 }, "geometry": { "type": "MultiPolygon", "coordinates": [ [ [ [ 25.419821983412398, -28.567813021602355 ], [ 25.541896873080525, -27.707333921258726 ], [ 26.581022153426286, -27.329199506920865 ], [ 27.146735056766385, -27.129711272585148 ], [ 27.590373070438361, -26.882584056915526 ], [ 27.682673596772805, -26.942132783582903 ], [ 27.989349539109806, -26.939155347249532 ], [ 28.066762883777397, -26.763486603580763 ], [ 28.221589573112585, -26.814103021248037 ], [ 28.412145498448197, -26.802193275914561 ], [ 28.579203818125809, -26.774350222634958 ], [ 28.76943785845247, -26.742644549247181 ], [ 28.849828639453431, -26.760509167247395 ], [ 28.834941457786588, -26.858764566248571 ], [ 28.093559810777712, -27.522732868589845 ], [ 27.727335141773331, -27.746040593592518 ], [ 27.066344275765424, -28.106310389930162 ], [ 27.053207119918003, -28.115819188448295 ], [ 26.753713460761688, -28.332595551266202 ], [ 26.173113375754742, -28.24922733393187 ], [ 25.419821983412398, -28.567813021602355 ] ] ] ] } },
{ "type": "Feature", "properties": { "id": 10, "name": "Bloemfontein", "POP2016": 1462012.85039, "GVA2016": 69007.170119253162 }, "geometry": { "type": "MultiPolygon", "coordinates": [ [ [ [ 25.604423036081275, -29.529524957280525 ], [ 25.452573783079458, -28.823872546272085 ], [ 25.419821983412398, -28.567813021602355 ], [ 26.173113375754742, -28.24922733393187 ], [ 26.753713460761688, -28.332595551266202 ], [ 27.053207119918003, -28.115819188448295 ], [ 27.066344275765424, -28.106310389930162 ], [ 27.727335141773331, -27.746040593592518 ], [ 28.093559810777712, -27.522732868589845 ], [ 28.834941457786588, -26.858764566248571 ], [ 28.849828639453431, -26.760509167247395 ], [ 29.421496415460268, -26.894493802248995 ], [ 29.430428724460377, -26.951065092583004 ], [ 29.412564106460163, -27.079094854917869 ], [ 29.460203087794067, -27.239876416919792 ], [ 29.409586670126792, -27.72519853925893 ], [ 29.272624598791822, -28.076536026596468 ], [ 28.614611169117286, -28.076536026596468 ], [ 28.647362968784343, -28.564835585268977 ], [ 28.656512021877141, -28.698150358906894 ], [ 28.429239984000048, -28.620590018999962 ], [ 28.401049985000043, -28.624840019999965 ], [ 28.402779985000052, -28.644349985999952 ], [ 28.365889997000068, -28.665430003999973 ], [ 28.372039991000065, -28.683719997999958 ], [ 28.349590004000049, -28.703439997999965 ], [ 28.304930002000049, -28.692380001999936 ], [ 28.28119, -28.714930002999949 ], [ 28.233519999000066, -28.695099998999979 ], [ 28.196439997000027, -28.71123999699995 ], [ 28.19022, -28.696829998999931 ], [ 28.183099997000056, -28.693869996999979 ], [ 28.157690001000049, -28.730800001999967 ], [ 28.119080004000068, -28.741589997999938 ], [ 28.07488999800006, -28.814990001999945 ], [ 28.050750004000065, -28.81805000199995 ], [ 28.05454, -28.841419998999982 ], [ 28.02396, -28.859369997999977 ], [ 28.028889998000068, -28.879139996999982 ], [ 27.995810003000031, -28.87198000199993 ], [ 27.990590001000044, -28.88298 ], [ 27.938359999000056, -28.848289998999974 ], [ 27.91872, -28.860280001999968 ], [ 27.920000001000062, -28.87745999599997 ], [ 27.893090003000054, -28.87924000299995 ], [ 27.888400002000026, -28.916730001999952 ], [ 27.829889998000056, -28.90354 ], [ 27.816289997000069, -28.921099996999942 ], [ 27.754289998000047, -28.897129996999979 ], [ 27.761949999000024, -28.938029988999972 ], [ 27.723070003000032, -28.949359998999967 ], [ 27.722860001000072, -28.975630000999956 ], [ 27.707390002000068, -28.98237 ], [ 27.71356, -29.01011 ], [ 27.68510000200007, -29.003609996999955 ], [ 27.67304000300004, -29.043990010999948 ], [ 27.641360003000045, -29.045810001999939 ], [ 27.675490001000071, -29.077280000999963 ], [ 27.641209998000079, -29.080870000999937 ], [ 27.64629, -29.117650000999959 ], [ 27.60136, -29.137069998999948 ], [ 27.614169999000069, -29.16418 ], [ 27.580599996000046, -29.166319997999949 ], [ 27.57482, -29.184810003999928 ], [ 27.51494000200006, -29.224419995999938 ], [ 27.547629989000029, -29.24636000299995 ], [ 27.540889997000079, -29.259880001999932 ], [ 27.494880008000052, -29.284009997999931 ], [ 27.489309998000067, -29.301970003999941 ], [ 27.454590002000032, -29.29769 ], [ 27.472340005000035, -29.320259997999983 ], [ 27.436280003000036, -29.334150001999944 ], [ 27.432300002000034, -29.372959994999974 ], [ 27.406049997000025, -29.364860001999944 ], [ 27.424610006000023, -29.404120001999956 ], [ 27.395780003000027, -29.41122 ], [ 27.356650004000073, -29.452669995999941 ], [ 27.361299996000071, -29.485569992999956 ], [ 27.329439996000076, -29.480730001999973 ], [ 27.306360003000066, -29.496839997999928 ], [ 27.305239997000058, -29.533870000999968 ], [ 27.27685000300005, -29.526330001999952 ], [ 27.243890001000068, -29.554529998999953 ], [ 27.222109997000075, -29.54451 ], [ 27.202659997000069, -29.568690001999983 ], [ 27.154169999000032, -29.560999998999932 ], [ 27.085120001000064, -29.615059998999982 ], [ 27.066259998000078, -29.597259995999934 ], [ 27.057190004000063, -29.63712 ], [ 27.033890002000078, -29.613419998999973 ], [ 27.017439996000064, -29.618169996999939 ], [ 27.020118041864503, -29.623357766826352 ], [ 26.777532951428643, -29.705193700949295 ], [ 26.235639538755493, -29.684351646615713 ], [ 26.089745158420413, -29.606938301948119 ], [ 25.604423036081275, -29.529524957280525 ] ] ] ] } },
{ "type": "Feature", "properties": { "id": 1, "name": "East London", "POP2016": 3982301.2768399999, "GVA2016": 89076.05561413645 }, "geometry": { "type": "MultiPolygon", "coordinates": [ [ [ [ 27.084692076009727, -33.530681597334876 ], [ 26.182045684754854, -33.039922394322517 ], [ 26.015309250086194, -32.774930560652685 ], [ 25.911098978418281, -32.542690526649906 ], [ 26.137384139754321, -31.759624770973868 ], [ 26.938314513430566, -31.446993955970132 ], [ 27.325381236768528, -30.512078947292281 ], [ 27.381952527102541, -30.321523021956668 ], [ 27.39273530211085, -30.306467826662043 ], [ 27.39520000400006, -30.307680001999984 ], [ 27.382580002000054, -30.336509996999951 ], [ 27.468810003000044, -30.316469990999963 ], [ 27.489420002000031, -30.373409998999932 ], [ 27.553109999000071, -30.401159996999979 ], [ 27.567310003000046, -30.444799990999968 ], [ 27.60371, -30.448020000999975 ], [ 27.60969, -30.495619998999928 ], [ 27.690399997000043, -30.540840002999971 ], [ 27.74629000300007, -30.605699997999977 ], [ 27.795470004000038, -30.619110000999967 ], [ 27.915489999000044, -30.6013 ], [ 27.940520001000039, -30.644109998999966 ], [ 28.003749993000042, -30.65899000099995 ], [ 28.084570002000078, -30.653980000999979 ], [ 28.113575001000072, -30.675575002999949 ], [ 28.123830002000034, -30.659179998999946 ], [ 28.113150002000054, -30.599870001999932 ], [ 28.151229991000037, -30.584010001999957 ], [ 28.156959997000058, -30.544000000999972 ], [ 28.177069998000036, -30.52525000199995 ], [ 28.179730006000057, -30.491339995999965 ], [ 28.156350003000057, -30.46553999799994 ], [ 28.186130002000027, -30.43522 ], [ 28.256950001000064, -30.41865 ], [ 28.27078, -30.370820002999949 ], [ 28.25651, -30.32444 ], [ 28.206910003000075, -30.290670000999967 ], [ 28.236430001000031, -30.259939996999947 ], [ 28.303189997000061, -30.256230002999928 ], [ 28.345849999000052, -30.23206999699994 ], [ 28.361099998000043, -30.175349996999955 ], [ 28.397450003000074, -30.144660000999977 ], [ 28.472510004000071, -30.155600009999944 ], [ 28.519088064023116, -30.134738905244109 ], [ 29.198188690457588, -31.077791850632359 ], [ 29.859175388961976, -31.429127122810371 ], [ 29.76998, -31.445109995999928 ], [ 29.735559998000042, -31.466409997999961 ], [ 29.673060002000057, -31.54687 ], [ 29.544810004000055, -31.642570001999957 ], [ 29.422260001000041, -31.691689997999958 ], [ 29.403009996000037, -31.734019995999972 ], [ 29.356720001000042, -31.758519996999951 ], [ 29.347670003000076, -31.803719996999973 ], [ 29.319630002000054, -31.810939996999934 ], [ 29.262629996000044, -31.863839998999936 ], [ 29.21298, -31.945029996999949 ], [ 29.181799997000041, -31.951860003999968 ], [ 29.135820010000032, -31.995910002999949 ], [ 29.088860001000057, -32.080280002999984 ], [ 29.02100000400003, -32.120820003999938 ], [ 28.943039999000064, -32.218720000999951 ], [ 28.897809997000024, -32.245160003999956 ], [ 28.88485, -32.28041 ], [ 28.784889999000029, -32.34271 ], [ 28.74443, -32.396440003999942 ], [ 28.65935, -32.458019997999941 ], [ 28.651609997000037, -32.482550000999936 ], [ 28.582450003000076, -32.523069997999983 ], [ 28.551589999000043, -32.572619995999958 ], [ 28.431509998000024, -32.633189996999931 ], [ 28.37358, -32.70487 ], [ 28.139179999000078, -32.807260002999953 ], [ 28.080970004000051, -32.912060001999976 ], [ 27.960770001000071, -32.978790002999972 ], [ 27.922610002000056, -33.011599998999941 ], [ 27.9255, -33.028380001999949 ], [ 27.728509989000031, -33.121000007999953 ], [ 27.603109996000057, -33.222030000999951 ], [ 27.528150001000029, -33.256259996999972 ], [ 27.215610003000052, -33.459880002999967 ], [ 27.156119999000055, -33.478500001999976 ], [ 27.112389998000026, -33.524750003999941 ], [ 27.084692076009727, -33.530681597334876 ] ] ] ] } },
{ "type": "Feature", "properties": { "id": 12, "name": "Pinetown", "POP2016": 7834310.2109099999, "GVA2016": 338895.8008714203 }, "geometry": { "type": "MultiPolygon", "coordinates": [ [ [ [ 29.859175388961976, -31.429127122810371 ], [ 29.198188690457588, -31.077791850632359 ], [ 28.519088064023116, -30.134738905244109 ], [ 28.550590003000025, -30.120630003999963 ], [ 28.667609997000056, -30.140710001999935 ], [ 28.749820002000035, -30.10648000599997 ], [ 28.85534, -30.090139995999948 ], [ 28.940969997000025, -30.036410000999979 ], [ 28.986970004000057, -30.030460002999973 ], [ 29.083809942000073, -29.953069939999978 ], [ 29.103719942000055, -29.966979939999931 ], [ 29.108989942000051, -29.936969939999983 ], [ 29.169659942000067, -29.915839939999955 ], [ 29.162879942000075, -29.883819939999967 ], [ 29.101149942000063, -29.846879939999951 ], [ 29.13157994200003, -29.825899939999942 ], [ 29.123589942000024, -29.767399939999962 ], [ 29.151579942000069, -29.733629939999958 ], [ 29.162289942000029, -29.677499939999961 ], [ 29.234969942000077, -29.639659939999945 ], [ 29.282299942000066, -29.642709939999975 ], [ 29.285169942000039, -29.584479939999937 ], [ 29.325129942000046, -29.569800064999981 ], [ 29.305639942000028, -29.554249939999977 ], [ 29.313009942000065, -29.536910064999972 ], [ 29.293239942000071, -29.517219939999961 ], [ 29.306900067000072, -29.510309939999956 ], [ 29.293319942000039, -29.490050064999934 ], [ 29.400429942000073, -29.447029939999936 ], [ 29.419519942000079, -29.396759939999981 ], [ 29.447030067000071, -29.376259939999954 ], [ 29.443721390578695, -29.358484997854617 ], [ 29.877044174465688, -28.942969999606817 ], [ 30.302817570137446, -28.874488963939331 ], [ 30.287930388470603, -28.290911442599015 ], [ 30.579719149140761, -28.353437605599762 ], [ 31.414593614887689, -29.309265615854201 ], [ 31.340069944000049, -29.382799939999984 ], [ 31.131269943000063, -29.648289939999984 ], [ 31.043699943000036, -29.805310064999958 ], [ 31.038650068000038, -29.848269939999966 ], [ 31.06400994300003, -29.865420064999967 ], [ 31.059649943000068, -29.879509939999934 ], [ 30.884879943000044, -30.058439939999971 ], [ 30.735679943000036, -30.338809940999965 ], [ 30.547249943000054, -30.627459940999984 ], [ 30.227479943000048, -31.058289940999941 ], [ 30.097669999000061, -31.187609995999935 ], [ 30.069319998000026, -31.23714999699996 ], [ 29.859549997000045, -31.429059996999968 ], [ 29.859175388961976, -31.429127122810371 ] ] ] ] } },
{ "type": "Feature", "properties": { "id": 13, "name": "Ladysmith", "POP2016": 904157.27031000005, "GVA2016": 19919.313903998518 }, "geometry": { "type": "MultiPolygon", "coordinates": [ [ [ [ 28.656512021877141, -28.698150358906894 ], [ 28.647362968784343, -28.564835585268977 ], [ 28.614611169117286, -28.076536026596468 ], [ 29.272624598791822, -28.076536026596468 ], [ 29.439361033460457, -28.308776060599232 ], [ 29.817495447798315, -28.415963768600516 ], [ 30.287930388470603, -28.290911442599015 ], [ 30.302817570137446, -28.874488963939331 ], [ 29.877044174465688, -28.942969999606817 ], [ 29.443721390578695, -29.358484997854617 ], [ 29.441389942000058, -29.345959939999943 ], [ 29.455709942000055, -29.336259939999934 ], [ 29.438339942000027, -29.309339939999973 ], [ 29.44013994200003, -29.26980006499997 ], [ 29.418469942000058, -29.258079939999959 ], [ 29.40816006700004, -29.212070064999978 ], [ 29.344819942000072, -29.187899939999966 ], [ 29.349449942000035, -29.118699939999942 ], [ 29.307819942000037, -29.076629939999975 ], [ 29.254829942000072, -29.089500064999982 ], [ 29.211899942000059, -29.046089939999945 ], [ 29.215279942000052, -29.026059939999982 ], [ 29.124469942000076, -28.980289938999931 ], [ 29.126719942000079, -28.963929938999968 ], [ 29.073920067000074, -28.937650063999968 ], [ 29.077789942000038, -28.918059938999932 ], [ 29.041279942000074, -28.915060063999931 ], [ 29.018979942000044, -28.881909938999968 ], [ 28.979919941000048, -28.914449938999951 ], [ 28.962019941000051, -28.868759938999972 ], [ 28.939799941000047, -28.862409938999974 ], [ 28.953039941000043, -28.85340993899996 ], [ 28.94825994100006, -28.828609938999932 ], [ 28.921969941000043, -28.81278993899997 ], [ 28.949019941000074, -28.804319938999981 ], [ 28.932179941000072, -28.791920063999953 ], [ 28.943479941000078, -28.782349938999971 ], [ 28.911939941000071, -28.760260063999965 ], [ 28.880499941000039, -28.774589938999952 ], [ 28.656512021877141, -28.698150358906894 ] ] ] ] } },
{ "type": "Feature", "properties": { "id": 14, "name": "Vaal Triangle", "POP2016": 1394750.87842, "GVA2016": 53827.97256217002 }, "geometry": { "type": "MultiPolygon", "coordinates": [ [ [ [ 28.066762883777397, -26.763486603580763 ], [ 27.989349539109806, -26.939155347249532 ], [ 27.682673596772805, -26.942132783582903 ], [ 27.590373070438361, -26.882584056915526 ], [ 27.658854106105846, -26.486585024577455 ], [ 27.926823376109024, -26.404705525409785 ], [ 28.008817392058724, -26.414553968666308 ], [ 28.132266483111483, -26.599727605245452 ], [ 28.066762883777397, -26.763486603580763 ] ] ] ] } },
{ "type": "Feature", "properties": { "id": 15, "name": "West Rand", "POP2016": 2759632.8383199996, "GVA2016": 91183.128827465902 }, "geometry": { "type": "MultiPolygon", "coordinates": [ [ [ [ 27.658854106105846, -26.486585024577455 ], [ 27.605260252105204, -26.397261934576385 ], [ 27.462343308103495, -25.867278267236713 ], [ 27.827079258941172, -25.837503903902995 ], [ 27.821124386274434, -25.923849557570694 ], [ 27.926823376109024, -26.404705525409785 ], [ 27.658854106105846, -26.486585024577455 ] ] ] ] } },
{ "type": "Feature", "properties": { "id": 16, "name": "Rustenburg", "POP2016": 1968987.4712099999, "GVA2016": 95367.385681429776 }, "geometry": { "type": "MultiPolygon", "coordinates": [ [ [ [ 27.827079258941172, -25.837503903902995 ], [ 27.462343308103495, -25.867278267236713 ], [ 26.878765786763182, -25.769022868235538 ], [ 25.545105201548225, -25.663036596562826 ], [ 25.580879999000047, -25.63879998799996 ], [ 25.62979000100006, -25.537820002999979 ], [ 25.680759999000031, -25.403960001999963 ], [ 25.699819998000066, -25.291000002999965 ], [ 25.7291, -25.256880002999935 ], [ 25.860760006000078, -24.924259997999968 ], [ 25.881820004000076, -24.91423999899996 ], [ 25.872559996000064, -24.905259996999973 ], [ 25.888769997000054, -24.88246000099997 ], [ 25.863180001000046, -24.808479996999949 ], [ 25.84240999900004, -24.79034 ], [ 25.8479, -24.75551 ], [ 25.926865816268872, -24.751395996763364 ], [ 26.656549671931039, -24.986029465636367 ], [ 27.204795065267053, -25.057415584560324 ], [ 28.154597255611744, -25.057415584560324 ], [ 28.139710073944901, -25.471279234898606 ], [ 28.047409547610464, -25.453414616898392 ], [ 27.871740803941695, -25.471279234898606 ], [ 27.821124386274423, -25.524873088899248 ], [ 27.827079258941172, -25.837503903902995 ] ] ] ] } },
{ "type": "Feature", "properties": { "id": 17, "name": "Waterberg", "POP2016": 263168.52668999997, "GVA2016": 9709.2017549242082 }, "geometry": { "type": "MultiPolygon", "coordinates": [ [ [ [ 28.154597255611744, -25.057415584560324 ], [ 27.204795065267053, -25.057415584560324 ], [ 26.656549671931039, -24.986029465636367 ], [ 25.926865816268872, -24.751395996763364 ], [ 25.964409997000075, -24.74944 ], [ 26.007410002000029, -24.724280005999958 ], [ 26.393280001000051, -24.636629998999979 ], [ 26.408780003000061, -24.646129995999956 ], [ 26.471059999000033, -24.588970002999929 ], [ 26.510300003000054, -24.488040000999945 ], [ 26.559649997000065, -24.453610000999959 ], [ 26.58746, -24.410729997999965 ], [ 26.658700003000035, -24.385050002999947 ], [ 26.67567000300005, -24.344049996999956 ], [ 26.733360004000076, -24.30414000199994 ], [ 26.785830003000058, -24.306570002999933 ], [ 26.855739997000057, -24.263489996999965 ], [ 26.869109992000062, -24.244460000999936 ], [ 26.85937999600003, -24.22297 ], [ 26.883280009000032, -24.190170001999945 ], [ 26.864480004000029, -24.179130002999955 ], [ 26.879129999000043, -24.16010999699995 ], [ 26.8602, -24.106560000999934 ], [ 26.884820003000073, -24.08946999799997 ], [ 26.914629999000056, -23.971419998999977 ], [ 26.932190002000027, -23.95537 ], [ 26.927789999000026, -23.92239000099994 ], [ 26.95521999500005, -23.873989997999956 ], [ 26.9323, -23.851119998999934 ], [ 26.9588, -23.830379998999945 ], [ 26.949059999000042, -23.813889998999969 ], [ 26.97107, -23.702759998999966 ], [ 27.00214999700006, -23.688520000999972 ], [ 26.99569000300005, -23.65241999899996 ], [ 27.010339998000063, -23.637960000999954 ], [ 27.03655000200007, -23.656509995999954 ], [ 27.03796000400007, -23.682660002999967 ], [ 27.070670002000043, -23.670629998999971 ], [ 27.081149998000058, -23.643310002999954 ], [ 27.059389999000075, -23.612579998999934 ], [ 27.09971999000004, -23.602940003999947 ], [ 27.117229996000049, -23.562209996999968 ], [ 27.154780001000063, -23.56916999699996 ], [ 27.135180004000063, -23.523619995999979 ], [ 27.201000001000068, -23.534339996999961 ], [ 27.210870003000025, -23.526030000999981 ], [ 27.192409999000063, -23.49807999899997 ], [ 27.226120001000027, -23.485080001999961 ], [ 27.23331999800007, -23.495909998999934 ], [ 27.25861, -23.472280000999945 ], [ 27.30252, -23.462960003999967 ], [ 27.336999999000057, -23.400390003999973 ], [ 27.356639998000048, -23.399979989999963 ], [ 27.349539999000058, -23.425989989999948 ], [ 27.37426, -23.42709 ], [ 27.37723999800005, -23.398999998999955 ], [ 27.40838, -23.389089995999939 ], [ 27.401219997000055, -23.413030001999971 ], [ 27.421840002000067, -23.426529996999932 ], [ 27.441979998000079, -23.384669993999978 ], [ 27.497468881566885, -23.38505413559119 ], [ 27.91342491260886, -23.969162604713965 ], [ 28.379393698781108, -24.688213479222568 ], [ 28.191815209778863, -24.850483759391178 ], [ 28.154597255611744, -25.057415584560324 ] ] ] ] } },
{ "type": "Feature", "properties": { "id": 18, "name": "Polokwane", "POP2016": 4299467.9009199999, "GVA2016": 104514.42767183829 }, "geometry": { "type": "MultiPolygon", "coordinates": [ [ [ [ 28.379393698781108, -24.688213479222568 ], [ 27.91342491260886, -23.969162604713965 ], [ 27.497468881566885, -23.38505413559119 ], [ 27.528649999000038, -23.385269997999956 ], [ 27.567060001000073, -23.34112 ], [ 27.572940003000042, -23.265309998999953 ], [ 27.601210003000062, -23.247170001999962 ], [ 27.602479998000035, -23.21621 ], [ 27.649499997000078, -23.225699997999982 ], [ 27.689300003000028, -23.196229998999968 ], [ 27.71399000200006, -23.228610000999936 ], [ 27.741619998000033, -23.230410003999964 ], [ 27.785139997000044, -23.170780000999969 ], [ 27.766739999000038, -23.133870000999934 ], [ 27.809480010000073, -23.134499998999956 ], [ 27.81406, -23.106470003999959 ], [ 27.8811, -23.09050999699997 ], [ 27.935979996000071, -23.05168 ], [ 27.93543, -22.962590003999935 ], [ 28.039510001000053, -22.910270001999947 ], [ 28.051319997000064, -22.884629998999969 ], [ 28.04142, -22.833080000999928 ], [ 28.145129999000062, -22.77482 ], [ 28.182609999000078, -22.68857000099996 ], [ 28.246260002000042, -22.656569997999952 ], [ 28.277680001000078, -22.615479998999945 ], [ 28.325689999000076, -22.597129995999978 ], [ 28.344010002000061, -22.572909997999943 ], [ 28.479790001000026, -22.570970001999967 ], [ 28.514350002000072, -22.58924 ], [ 28.564089998000043, -22.561000001999957 ], [ 28.641260002000024, -22.558030002999942 ], [ 28.738080002000061, -22.504299998999954 ], [ 28.831050001000051, -22.488250000999983 ], [ 28.82973, -22.464620002999936 ], [ 28.856080002000056, -22.451190002999965 ], [ 28.918510003000051, -22.460569997999983 ], [ 28.97144994100006, -22.376980057999958 ], [ 28.966579941000077, -22.307540057999972 ], [ 29.035919942000078, -22.216580057999977 ], [ 29.15002994200006, -22.215890057999957 ], [ 29.218899942000064, -22.178100057999927 ], [ 29.257729942000026, -22.193390057999977 ], [ 29.320619942000064, -22.187000057999967 ], [ 29.333779942000035, -22.204820057999939 ], [ 29.464119942000025, -22.166120057999933 ], [ 29.526489942000069, -22.17823005799994 ], [ 29.539249942000026, -22.152660057999981 ], [ 29.580220068000074, -22.140900057999943 ], [ 29.610239942000078, -22.155690057999948 ], [ 29.656709942000077, -22.125110057999962 ], [ 29.672639942000046, -22.138810056999944 ], [ 29.773589942000058, -22.141420057999937 ], [ 29.884529942000029, -22.194560057999979 ], [ 29.925719942000057, -22.189930057999959 ], [ 29.969889942000066, -22.22417005799997 ], [ 30.017599942000061, -22.228940057999978 ], [ 30.025629942000023, -22.253630057999942 ], [ 30.058059942000057, -22.257130057999973 ], [ 30.126169943000036, -22.311050057999978 ], [ 30.231139943000073, -22.29586005799996 ], [ 30.290239943000074, -22.356250057999944 ], [ 30.382249943000033, -22.350880057999973 ], [ 30.489389943000049, -22.316350057999955 ], [ 30.552809943000057, -22.331640057999948 ], [ 30.594749943000068, -22.319730057999948 ], [ 30.631679943000051, -22.336290057999975 ], [ 30.66326, -22.31096 ], [ 30.708630001000074, -22.317110001999936 ], [ 30.83917000200006, -22.292080000999931 ], [ 30.930630002000044, -22.30139 ], [ 30.98089, -22.327610009999944 ], [ 30.99967999900008, -22.316419990999975 ], [ 31.088439999000059, -22.349039996999977 ], [ 31.171569999000042, -22.330699996999954 ], [ 31.213099997000029, -22.368690000999948 ], [ 31.268500003000042, -22.36755 ], [ 31.30937, -22.422010006999983 ], [ 31.563599990000057, -23.198229997999931 ], [ 31.550730001000034, -23.410280001999979 ], [ 31.56102, -23.481959996999933 ], [ 31.636698216645847, -23.568125548850162 ], [ 31.632242892986678, -23.570186136042526 ], [ 30.902770991311286, -23.861974896712681 ], [ 30.703282756975561, -23.861974896712681 ], [ 30.539523758640268, -23.954275423047118 ], [ 30.289419106637276, -24.195447766050005 ], [ 30.13161498096872, -24.418755491052675 ], [ 29.908307255966051, -24.563161153221071 ], [ 29.244338953624773, -24.761160669390105 ], [ 29.14012868195686, -25.021686348559886 ], [ 28.858760948453494, -24.895145304391708 ], [ 28.985301992621675, -24.744784769556574 ], [ 28.379393698781108, -24.688213479222568 ] ] ] ] } },
{ "type": "Feature", "properties": { "id": 19, "name": "Warmbad", "POP2016": 474026.59122, "GVA2016": 15166.262479626728 }, "geometry": { "type": "MultiPolygon", "coordinates": [ [ [ [ 28.139710073944901, -25.471279234898606 ], [ 28.154597255611744, -25.057415584560324 ], [ 28.191815209778863, -24.850483759391178 ], [ 28.379393698781108, -24.688213479222568 ], [ 28.985301992621675, -24.744784769556574 ], [ 28.858760948453494, -24.895145304391708 ], [ 28.819309917036353, -25.010520962309759 ], [ 28.616099887283927, -25.521895652565878 ], [ 28.495513715782483, -25.684165932734484 ], [ 28.376416262447727, -25.608241306233577 ], [ 28.278160863446551, -25.471279234898603 ], [ 28.139710073944901, -25.471279234898606 ] ] ] ] } },
{ "type": "Feature", "properties": { "id": 20, "name": "Pretoria", "POP2016": 3804857.00887, "GVA2016": 268944.18688555638 }, "geometry": { "type": "MultiPolygon", "coordinates": [ [ [ [ 27.821124386274434, -25.923849557570694 ], [ 27.827079258941172, -25.837503903902995 ], [ 27.821124386274423, -25.524873088899248 ], [ 27.871740803941695, -25.471279234898606 ], [ 28.047409547610464, -25.453414616898392 ], [ 28.139710073944901, -25.471279234898606 ], [ 28.278160863446551, -25.471279234898603 ], [ 28.376416262447727, -25.608241306233577 ], [ 28.495513715782483, -25.684165932734484 ], [ 28.616099887283927, -25.521895652565878 ], [ 28.819309917036353, -25.010520962309759 ], [ 28.858760948453494, -24.895145304391708 ], [ 29.14012868195686, -25.021686348559886 ], [ 28.899700698037314, -25.748925172985263 ], [ 28.479893018348953, -26.074799276706305 ], [ 28.375671903364378, -25.96032315265446 ], [ 28.197025723362241, -25.921616480320662 ], [ 27.821124386274434, -25.923849557570694 ] ] ] ] } },
{ "type": "Feature", "properties": { "id": 21, "name": "Johannesburg", "POP2016": 4454843.9876600001, "GVA2016": 431326.26676815102 }, "geometry": { "type": "MultiPolygon", "coordinates": [ [ [ [ 28.008817392058724, -26.414553968666308 ], [ 27.926823376109024, -26.404705525409785 ], [ 27.821124386274434, -25.923849557570694 ], [ 28.197025723362241, -25.921616480320662 ], [ 28.375671903364378, -25.96032315265446 ], [ 28.159807769195123, -26.414382193493225 ], [ 28.008817392058724, -26.414553968666308 ] ] ] ] } },
{ "type": "Feature", "properties": { "id": 22, "name": "Nigel", "POP2016": 1396741.2515999998, "GVA2016": 69686.492013817769 }, "geometry": { "type": "MultiPolygon", "coordinates": [ [ [ [ 28.579203818125809, -26.774350222634958 ], [ 28.412145498448197, -26.802193275914561 ], [ 28.221589573112585, -26.814103021248037 ], [ 28.066762883777397, -26.763486603580763 ], [ 28.132266483111483, -26.599727605245452 ], [ 28.008817392058724, -26.414553968666308 ], [ 28.159807769195123, -26.414382193493225 ], [ 28.375671903364378, -25.96032315265446 ], [ 28.479893018348953, -26.074799276706305 ], [ 28.639691711584746, -26.098942875146868 ], [ 28.862432347364528, -26.176767789888689 ], [ 28.809278817343898, -26.313134723468306 ], [ 28.669321561742859, -26.566975805578366 ], [ 28.579203818125809, -26.774350222634958 ] ] ] ] } },
{ "type": "Feature", "properties": { "id": 23, "name": "Highveld South", "POP2016": 776038.62978999992, "GVA2016": 35854.644699713535 }, "geometry": { "type": "MultiPolygon", "coordinates": [ [ [ [ 29.430428724460377, -26.951065092583004 ], [ 29.421496415460268, -26.894493802248995 ], [ 28.849828639453431, -26.760509167247395 ], [ 28.76943785845247, -26.742644549247181 ], [ 28.579203818125809, -26.774350222634958 ], [ 28.669321561742859, -26.566975805578366 ], [ 28.809278817343898, -26.313134723468306 ], [ 28.862432347364528, -26.176767789888689 ], [ 29.041501103413985, -26.275187044908211 ], [ 29.184418047415694, -26.272209608574844 ], [ 29.955574057758252, -26.156089591573455 ], [ 30.226520764094825, -26.191818827573883 ], [ 30.843883712728029, -26.401435084551665 ], [ 30.80506, -26.466670994999959 ], [ 30.790799998000068, -26.712289996999971 ], [ 30.813219999000069, -26.844480003999934 ], [ 30.88728499900003, -26.803584998999952 ], [ 30.89191, -26.785060003999945 ], [ 30.90742, -26.859929998999974 ], [ 30.973559995000073, -26.908210001999976 ], [ 30.976519997000025, -26.953429997999933 ], [ 30.958326003000025, -26.992128997999941 ], [ 30.971778731416052, -27.014954469474219 ], [ 30.810098285435128, -27.198192308252583 ], [ 30.408144380430322, -27.076117418584456 ], [ 30.074671511092998, -27.001681510250233 ], [ 29.955574057758241, -27.001681510250233 ], [ 29.863273531423804, -27.079094854917827 ], [ 29.738221205422306, -27.055275364250875 ], [ 29.565529898086908, -27.079094854917827 ], [ 29.430428724460377, -26.951065092583004 ] ] ] ] } },
{ "type": "Feature", "properties": { "id": 24, "name": "Highveld North", "POP2016": 902976.27720000013, "GVA2016": 39455.380093986169 }, "geometry": { "type": "MultiPolygon", "coordinates": [ [ [ [ 29.184418047415694, -26.272209608574844 ], [ 29.041501103413985, -26.275187044908211 ], [ 28.862432347364528, -26.176767789888689 ], [ 28.639691711584746, -26.098942875146868 ], [ 28.479893018348953, -26.074799276706305 ], [ 28.899700698037314, -25.748925172985263 ], [ 29.574462207087016, -25.623128487900416 ], [ 30.315843854095888, -25.596331560900094 ], [ 30.598700305765938, -25.626105924233784 ], [ 30.920263429769783, -25.715429014234854 ], [ 31.277046549924886, -25.792494168188355 ], [ 31.263569997000047, -25.809630002999938 ], [ 31.12657000300004, -25.921149996999929 ], [ 31.112750002000041, -25.982569995999938 ], [ 30.961437996000029, -26.261732 ], [ 30.891860001000055, -26.320820000999959 ], [ 30.843883712728029, -26.401435084551665 ], [ 30.226520764094825, -26.191818827573883 ], [ 29.955574057758252, -26.156089591573455 ], [ 29.184418047415694, -26.272209608574844 ] ] ] ] } },
{ "type": "Feature", "properties": { "id": 25, "name": "Lowveld", "POP2016": 2824657.1635199999, "GVA2016": 68648.064022892155 }, "geometry": { "type": "MultiPolygon", "coordinates": [ [ [ [ 28.899700698037314, -25.748925172985263 ], [ 29.14012868195686, -25.021686348559886 ], [ 29.244338953624773, -24.761160669390105 ], [ 29.908307255966051, -24.563161153221071 ], [ 30.13161498096872, -24.418755491052675 ], [ 30.289419106637276, -24.195447766050005 ], [ 30.539523758640268, -23.954275423047118 ], [ 30.703282756975561, -23.861974896712681 ], [ 30.902770991311286, -23.861974896712681 ], [ 31.632242892986678, -23.570186136042526 ], [ 31.636698216645847, -23.568125548850162 ], [ 31.690549999000041, -23.629440002999957 ], [ 31.697390004000056, -23.721889992999934 ], [ 31.769180003000031, -23.8878 ], [ 31.880720001000043, -23.95505000199995 ], [ 31.908010003000072, -24.182429998999964 ], [ 31.987129998000057, -24.3022 ], [ 32.01309999800003, -24.45459 ], [ 31.998270003000073, -24.689740001999951 ], [ 32.031979997000064, -25.183095 ], [ 32.015279996000061, -25.382499995999979 ], [ 31.977400003000071, -25.47469 ], [ 32.006099, -25.645194 ], [ 31.930549997000071, -25.840769996999938 ], [ 31.97369000100008, -25.953200002999949 ], [ 31.867860003000033, -25.999600001999966 ], [ 31.416299999000046, -25.71876 ], [ 31.315939998000033, -25.74304000099994 ], [ 31.277046549924886, -25.792494168188355 ], [ 30.920263429769783, -25.715429014234854 ], [ 30.598700305765938, -25.626105924233784 ], [ 30.315843854095888, -25.596331560900094 ], [ 29.574462207087016, -25.623128487900416 ], [ 28.899700698037314, -25.748925172985263 ] ] ] ] } },
{ "type": "Feature", "properties": { "id": 26, "name": "Newcastle", "POP2016": 1538275.6936599999, "GVA2016": 36160.446998300213 }, "geometry": { "type": "MultiPolygon", "coordinates": [ [ [ [ 29.272624598791822, -28.076536026596468 ], [ 29.409586670126792, -27.72519853925893 ], [ 29.460203087794067, -27.239876416919792 ], [ 29.412564106460163, -27.079094854917869 ], [ 29.430428724460377, -26.951065092583004 ], [ 29.565529898086908, -27.079094854917827 ], [ 29.738221205422306, -27.055275364250875 ], [ 29.863273531423804, -27.079094854917827 ], [ 29.955574057758241, -27.001681510250233 ], [ 30.074671511092998, -27.001681510250233 ], [ 30.408144380430322, -27.076117418584456 ], [ 30.810098285435128, -27.198192308252583 ], [ 30.971778731416052, -27.014954469474219 ], [ 30.984759997000026, -27.03698000199995 ], [ 31.06132999700003, -27.096290005999947 ], [ 31.150550002000045, -27.202080002999935 ], [ 31.471567122694292, -27.30786959734899 ], [ 31.471089151443035, -27.311334888920609 ], [ 31.481890822550884, -27.311271721253313 ], [ 31.493689944000039, -27.315160062999951 ], [ 31.97775994400007, -27.317520062999961 ], [ 31.977613940129888, -27.308372755653437 ], [ 31.980230764449129, -27.308357452587241 ], [ 31.908772292448273, -28.01996473626242 ], [ 31.286488098774161, -28.255182206598569 ], [ 31.131661409438976, -28.255182206598569 ], [ 30.955992665770207, -28.153949371264023 ], [ 30.691000832100372, -28.153949371264023 ], [ 30.287930388470603, -28.290911442599015 ], [ 29.817495447798315, -28.415963768600516 ], [ 29.439361033460457, -28.308776060599232 ], [ 29.272624598791822, -28.076536026596468 ] ] ] ] } },
{ "type": "Feature", "properties": { "id": 27, "name": "Empangeni", "POP2016": 1944716.8206299997, "GVA2016": 46816.129938232392 }, "geometry": { "type": "MultiPolygon", "coordinates": [ [ [ [ 30.287930388470603, -28.290911442599015 ], [ 30.691000832100372, -28.153949371264023 ], [ 30.955992665770207, -28.153949371264023 ], [ 31.131661409438976, -28.255182206598569 ], [ 31.286488098774161, -28.255182206598569 ], [ 31.908772292448273, -28.01996473626242 ], [ 31.980230764449129, -27.308357452587241 ], [ 31.977360444387696, -27.292490961136536 ], [ 31.974549944000046, -27.116409937999947 ], [ 32.011269944000048, -26.810220061999928 ], [ 32.053999944000054, -26.818370061999929 ], [ 32.100139944000034, -26.805100061999951 ], [ 32.120239944000048, -26.838820061999968 ], [ 32.182049944000028, -26.863140061999957 ], [ 32.21972994500004, -26.832830061999971 ], [ 32.331049945000075, -26.863919936999935 ], [ 32.891333945000042, -26.857862936999936 ], [ 32.944984945000044, -26.871974937999937 ], [ 32.896403945000031, -27.120758062999982 ], [ 32.732768945000032, -27.510556937999979 ], [ 32.735049945000071, -27.550849937999942 ], [ 32.655543945000034, -27.831862937999972 ], [ 32.614646945000061, -28.141686938999953 ], [ 32.482997945000079, -28.388292063999984 ], [ 32.47060794500004, -28.485335938999981 ], [ 32.414767945000051, -28.476392938999936 ], [ 32.359249945000045, -28.578739938999945 ], [ 32.012789944000076, -28.877009938999947 ], [ 31.758129944000075, -28.97028993899994 ], [ 31.414593614887689, -29.309265615854201 ], [ 30.579719149140761, -28.353437605599762 ], [ 30.287930388470603, -28.290911442599015 ] ] ] ] } }
]
}
